MALLIGYONG-1            
1 58400U 23179A   24240.86225572  .00009436  00000+0  41221-3 0  9992
2 58400  97.3923 126.5032 0000793  45.9905 314.1396 15.22319429 42621
